IRIDIUM 33 Debris
iridium-33-debris
IRIDIUM 33              
1 24946U 97051C   17274.48913568  .00000135  00000-0  41551-4 0  9991
2 24946  86.3868 242.2126 0005730 253.3383 106.7184 14.33569901 49266
IRIDIUM 33 DEB          
1 33772U 97051K   17274.99790253  .00014045  00000-0  17905-2 0  9997
2 33772  86.4061 234.4513 0028871  94.4618 311.7404 14.81120799455050
IRIDIUM 33 DEB          
1 33773U 97051L   17274.94254416  .00000302  00000-0  93043-4 0  9999
2 33773  86.4018 240.5198 0009272 286.7441  73.2740 14.38159649452805
IRIDIUM 33 DEB          
1 33775U 97051N   17274.83370757  .00000504  00000-0  17090-3 0  9997
2 33775  86.3686 235.7148 0012064 247.7278 152.2007 14.34783892451707
IRIDIUM 33 DEB          
1 33776U 97051P   17275.04864007  .00000300  00000-0  10103-3 0  9990
2 33776  86.4035 250.3381 0012570 255.2965 147.1783 14.33760715451609
IRIDIUM 33 DEB          
1 33777U 97051Q   17274.83764513  .00000917  00000-0  27797-3 0  9999
2 33777  86.3870 232.1791 0012088  87.7571 272.5013 14.41175204453191
IRIDIUM 33 DEB          
1 33849U 97051S   17274.67977020  .00003717  00000-0  10207-2 0  9998
2 33849  86.1107 162.1940 0068511  67.9058 292.9399 14.45412132448894
IRIDIUM 33 DEB          
1 33850U 97051T   17274.83799049  .00000408  00000-0  13501-3 0  9996
2 33850  86.3466 225.8021 0009838 254.0593 135.2482 14.35468984451557
IRIDIUM 33 DEB          
1 33853U 97051W   17274.79084706  .00000216  00000-0  12884-3 0  9991
2 33853  86.0080 206.9163 0240927 320.3164  66.2927 13.90003539436824
IRIDIUM 33 DEB          
1 33854U 97051X   17274.93518899  .00002940  00000-0  55484-3 0  9992
2 33854  86.2293 147.3126 0010509 134.4970 285.7373 14.64140953456694
IRIDIUM 33 DEB          
1 33855U 97051Y   17274.72405794  .00014748  00000-0  32783-2 0  9994
2 33855  86.3401 277.9191 0041613 172.4152 187.7695 14.56376203272383
IRIDIUM 33 DEB          
1 33858U 97051AB  17274.96808046  .00015934  00000-0  15304-2 0  9998
2 33858  86.1321  98.7202 0017569 309.3214 202.7399 14.92849015458819
IRIDIUM 33 DEB          
1 33859U 97051AC  17274.83303429  .00001663  00000-0  51621-3 0  9997
2 33859  86.3449 229.9355 0044303 277.4570  82.1596 14.40027661450972
IRIDIUM 33 DEB          
1 33860U 97051AD  17274.84686025  .00000746  00000-0  21155-3 0  9996
2 33860  86.3948 231.1582 0011586 245.1635 144.2113 14.44207869453620
IRIDIUM 33 DEB          
1 33862U 97051AF  17274.94272373  .00000596  00000-0  15933-3 0  9996
2 33862  86.4162 236.8933 0056201  25.4014  32.4292 14.45712517454164
IRIDIUM 33 DEB          
1 33864U 97051AH  17274.31122455  .00001074  00000-0  27588-3 0  9995
2 33864  86.2825 187.4265 0008046  51.2954  72.3272 14.49356078453804
IRIDIUM 33 DEB          
1 33865U 97051AJ  17275.12066059  .00004323  00000-0  82793-3 0  9992
2 33865  86.3509 205.8278 0040171 127.2573 296.5395 14.63092916455284
IRIDIUM 33 DEB          
1 33866U 97051AK  17274.95270546  .00000445  00000-0  21180-3 0  9995
2 33866  86.2997 260.3598 0128567 278.5609 137.6263 14.13125807444314
IRIDIUM 33 DEB          
1 33867U 97051AL  17275.11025725  .00002059  00000-0  46643-3 0  9996
2 33867  86.4191 223.4414 0028661 210.0118 149.9448 14.55434093456321
IRIDIUM 33 DEB          
1 33869U 97051AN  17274.95227242  .00002796  00000-0  86174-3 0  9998
2 33869  86.3648 255.4650 0075375  15.3613 344.9848 14.39499227448937
IRIDIUM 33 DEB          
1 33870U 97051AP  17274.95004549  .00000599  00000-0  20388-3 0  9997
2 33870  86.3794 242.5204 0020887 282.9812 137.2488 14.34856984451269
IRIDIUM 33 DEB          
1 33873U 97051AS  17274.97218865  .00002553  00000-0  57360-3 0  9992
2 33873  86.3717 212.6023 0020168 191.3745 168.7010 14.56047221455303
IRIDIUM 33 DEB          
1 33874U 97051AT  17274.94739667  .00001902  00000-0  68874-3 0  9997
2 33874  86.2904 232.7410 0083268  89.2277 333.8517 14.31030913448064
IRIDIUM 33 DEB          
1 33875U 97051AU  17274.91410942  .00002712  00000-0  45832-3 0  9996
2 33875  86.4131 204.1835 0035801  66.1780 340.4589 14.68608347458657
IRIDIUM 33 DEB          
1 33876U 97051AV  17275.11495604  .00007931  00000-0  10737-2 0  9991
2 33876  86.2012 139.0811 0012067  49.1160  65.4933 14.78815677457019
IRIDIUM 33 DEB          
1 33878U 97051AX  17274.69600541  .00005128  00000-0  15218-2 0  9998
2 33878  86.3122 242.7194 0111787  57.8030 303.3949 14.39523540448261
IRIDIUM 33 DEB          
1 33879U 97051AY  17275.20689885  .00004053  00000-0  67047-3 0  9999
2 33879  86.3633 197.7863 0025541  56.6432 303.7223 14.69897641456948
IRIDIUM 33 DEB          
1 33881U 97051BA  17275.05014451  .00000899  00000-0  36953-3 0  9992
2 33881  86.3882 275.8405 0083338 163.8739 254.5500 14.24031591446761
IRIDIUM 33 DEB          
1 33884U 97051BD  17274.82882637  .00000908  00000-0  24855-3 0  9997
2 33884  86.3840 225.3688 0012616   9.0512  12.3672 14.46116243453852
IRIDIUM 33 DEB          
1 33886U 97051BF  17275.03834946  .00000179  00000-0  57962-4 0  9999
2 33886  86.3834 242.2477 0012338 291.2450 111.9492 14.33246665451524
IRIDIUM 33 DEB          
1 33887U 97051BG  17274.77525205  .00000148  00000-0  45124-4 0  9998
2 33887  86.3096 209.1429 0005051 312.5523  75.4640 14.34923375452134
IRIDIUM 33 DEB          
1 33888U 97051BH  17274.35790685  .00003444  00000-0  10797-2 0  9997
2 33888  86.3278 228.7481 0050486 316.6330  43.0900 14.39640848450296
IRIDIUM 33 DEB          
1 33950U 97051BK  17274.57004045  .00004806  00000-0  10092-2 0  9990
2 33950  86.3847 222.4224 0018700  86.4410 273.8938 14.59356270454437
IRIDIUM 33 DEB          
1 33952U 97051BM  17274.80237776  .00002987  00000-0  68962-3 0  9995
2 33952  86.3552 210.3399 0013466 155.3974 204.7879 14.54920149454766
IRIDIUM 33 DEB          
1 33953U 97051BN  17274.35844941  .00000949  00000-0  30529-3 0  9998
2 33953  86.3927 243.3002 0021076 272.0118 244.7338 14.38221842451939
IRIDIUM 33 DEB          
1 33954U 97051BP  17274.63185362  .00002245  00000-0  49991-3 0  9999
2 33954  86.3827 230.5715 0016220  72.3003  53.3372 14.56453940453487
IRIDIUM 33 DEB          
1 33955U 97051BQ  17274.37354055  .00006607  00000-0  12375-2 0  9999
2 33955  86.3580 227.8942 0039702 164.0814 196.1656 14.64177812453126
IRIDIUM 33 DEB          
1 33956U 97051BR  17274.39180212  .00008356  00000-0  13519-2 0  9998
2 33956  86.4185 236.7179 0020758 303.1774 176.1517 14.71060637204977
IRIDIUM 33 DEB          
1 33959U 97051BU  17274.69804062  .00002930  00000-0  10461-2 0  9995
2 33959  86.3580 255.9992 0077684  54.1760 306.6620 14.32170550448059
IRIDIUM 33 DEB          
1 33960U 97051BV  17275.23057903  .00001051  00000-0  28755-3 0  9991
2 33960  86.2791 185.9494 0005884  65.4825  86.8562 14.46339967453909
IRIDIUM 33 DEB          
1 33961U 97051BW  17274.69483299  .00004626  00000-0  89821-3 0  9994
2 33961  86.2742 179.3032 0022225 128.5249 231.7959 14.62856630454899
IRIDIUM 33 DEB          
1 33962U 97051BX  17274.78948661  .00005228  00000-0  10724-2 0  9998
2 33962  86.3546 208.5447 0013528 132.8735 227.3614 14.60497022455010
IRIDIUM 33 DEB          
1 33964U 97051BZ  17274.66025619  .00063397  00000-0  25587-2 0  9990
2 33964  86.3083 160.6883 0012095  36.3123 323.8941 15.24464086460686
IRIDIUM 33 DEB          
1 33965U 97051CA  17274.93845217  .00002251  00000-0  57415-3 0  9993
2 33965  86.3731 221.6076 0009938 129.9338 230.2742 14.50156831453752
IRIDIUM 33 DEB          
1 33966U 97051CB  17274.45864201  .00000504  00000-0  15251-3 0  9996
2 33966  86.3966 235.1961 0009933  41.8639  84.3892 14.40414333452719
IRIDIUM 33 DEB          
1 33967U 97051CC  17274.84015565  .00001993  00000-0  39840-3 0  9994
2 33967  86.3841 220.0719 0041531 100.3585 260.2311 14.60828114454921
IRIDIUM 33 DEB          
1 34071U 97051CE  17275.21558306  .00000603  00000-0  18828-3 0  9998
2 34071  86.3518 221.1887 0005510 271.6371  88.4196 14.39185914452614
IRIDIUM 33 DEB          
1 34076U 97051CK  17274.92465468  .00003574  00000-0  44399-3 0  9998
2 34076  86.3360 169.1561 0041891  22.2642  99.6214 14.81670521458865
IRIDIUM 33 DEB          
1 34077U 97051CL  17274.97177402  .00001121  00000-0  35659-3 0  9997
2 34077  86.3947 244.9574 0015908 227.3411 191.8637 14.39007077451078
IRIDIUM 33 DEB          
1 34079U 97051CN  17274.82866845  .00000826  00000-0  21621-3 0  9994
2 34079  86.3933 226.1364 0010370 346.8967  41.8146 14.48180721454468
IRIDIUM 33 DEB          
1 34081U 97051CQ  17274.63830147  .00017551  00000-0  12527-2 0  9999
2 34081  86.2999 151.1078 0026820  15.0779  16.6076 15.04132267460660
IRIDIUM 33 DEB          
1 34082U 97051CR  17275.06808639  .00004543  00000-0  11553-2 0  9994
2 34082  86.3657 277.5280 0139165 191.3621 168.4432 14.44805414446662
IRIDIUM 33 DEB          
1 34086U 97051CV  17274.67192719  .00001733  00000-0  52076-3 0  9993
2 34086  86.3868 245.6275 0021527 253.9693 167.0668 14.42064998451367
IRIDIUM 33 DEB          
1 34088U 97051CX  17274.95863741  .00001373  00000-0  39426-3 0  9990
2 34088  86.4025 239.1567 0008277 207.5772 211.6186 14.44235130453012
IRIDIUM 33 DEB          
1 34090U 97051CZ  17274.79000267  .00008479  00000-0  10087-2 0  9996
2 34090  86.4177 203.8523 0018828  54.7641 305.5341 14.84147630458633
IRIDIUM 33 DEB          
1 34091U 97051DA  17274.73543090  .00001853  00000-0  69583-3 0  9992
2 34091  86.3679 259.7027 0070001  74.6959  46.4944 14.29747746448208
IRIDIUM 33 DEB          
1 34093U 97051DC  17274.59044212  .00011119  00000-0  92747-3 0  9994
2 34093  86.2945 141.5121 0016699 264.7451 123.6189 14.98377523461246
IRIDIUM 33 DEB          
1 34095U 97051DE  17274.95841992  .00003931  00000-0  89602-3 0  9995
2 34095  86.3833 234.0368 0047458 186.2901 173.7717 14.54930957452477
IRIDIUM 33 DEB          
1 34097U 97051DG  17274.54375660  .00001285  00000-0  57794-3 0  9993
2 34097  86.2094 215.7341 0097990 209.2309 150.3375 14.19085851446006
IRIDIUM 33 DEB          
1 34098U 97051DH  17275.02726449  .00004833  00000-0  71989-3 0  9997
2 34098  86.1341 110.0564 0020506  66.9472  85.9517 14.74570908457571
